{"type": "FeatureCollection", "features": [{"type": "Feature", "properties": {"norad_id": 66454, "name": "VIASAT-3 F2", "group": "last-30-days", "lat": 4.079376352044045, "lon": 63.22495724121232, "alt_km": 15298.321637494428, "timestamp": "2025-12-14T18:52:54.240697+00:00", "meta": {"OBJECT_NAME": "VIASAT-3 F2", "OBJECT_ID": "2025-261A", "EPOCH": "2025-12-12T22:24:17.478432", "MEAN_MOTION": 2.09869596, "ECCENTRICITY": 0.2249784, "INCLINATION": 5.3891, "RA_OF_ASC_NODE": 292.3457, "ARG_OF_PERICENTER": 185.8732, "MEAN_ANOMALY": 3.755, "EPHEMERIS_TYPE": 0, "CLASSIFICATION_TYPE": "U", "NORAD_CAT_ID": 66454, "ELEMENT_SET_NO": 999, "REV_AT_EPOCH": 64, "BSTAR": 0, "MEAN_MOTION_DOT": -8.1e-07, "MEAN_MOTION_DDOT": 0}, "tle": {"line1": "1 66454U 25261A   25346.93353563 -.00000081  00000+0  00000+0 0  9996", "line2": "2 66454   5.3891 292.3457 2249784 185.8732   3.7550  2.09869596   649"}}, "geometry": {"type": "Point", "coordinates": [63.22495724121232, 4.079376352044045]}}, {"type": "Feature", "properties": {"norad_id": 66455, "name": "ATLAS 5 CENTAUR R/B", "group": "last-30-days", "lat": -4.688284459949178, "lon": 160.97612432411364, "alt_km": 13307.653572803578, "timestamp": "2025-12-14T18:52:54.240750+00:00", "meta": {"OBJECT_NAME": "ATLAS 5 CENTAUR R/B", "OBJECT_ID": "2025-261B", "EPOCH": "2025-12-13T20:38:46.907232", "MEAN_MOTION": 2.28260017, "ECCENTRICITY": 0.23294251, "INCLINATION": 6.1444, "RA_OF_ASC_NODE": 291.5038, "ARG_OF_PERICENTER": 186.7091, "MEAN_ANOMALY": 345.4941, "EPHEMERIS_TYPE": 0, "CLASSIFICATION_TYPE": "U", "NORAD_CAT_ID": 66455, "ELEMENT_SET_NO": 999, "REV_AT_EPOCH": 67, "BSTAR": 0, "MEAN_MOTION_DOT": -7.2e-07, "MEAN_MOTION_DDOT": 0}, "tle": {"line1": "1 66455U 25261B   25347.86026513 -.00000072  00000+0  00000+0 0  9992", "line2": "2 66455   6.1444 291.5038 2329425 186.7091 345.4941  2.28260017   675"}}, "geometry": {"type": "Point", "coordinates": [160.97612432411364, -4.688284459949178]}}, {"type": "Feature", "properties": {"norad_id": 66456, "name": "STARLINK-35643", "group": "last-30-days", "lat": -1.1982783701405744, "lon": 58.53227466767044, "alt_km": 443.58529193987397, "timestamp": "2025-12-14T18:52:54.240769+00:00", "meta": {"OBJECT_NAME": "STARLINK-35643", "OBJECT_ID": "2025-262A", "EPOCH": "2025-12-13T22:39:46.920384", "MEAN_MOTION": 15.40670264, "ECCENTRICITY": 0.0001155, "INCLINATION": 43.001, "RA_OF_ASC_NODE": 64.6743, "ARG_OF_PERICENTER": 67.7496, "MEAN_ANOMALY": 292.3483, "EPHEMERIS_TYPE": 0, "CLASSIFICATION_TYPE": "U", "NORAD_CAT_ID": 66456, "ELEMENT_SET_NO": 999, "REV_AT_EPOCH": 574, "BSTAR": 0.0012902401, "MEAN_MOTION_DOT": 0.00053921, "MEAN_MOTION_DDOT": 0}, "tle": {"line1": "1 66456U 25262A   25347.94429306  .00053921  00000+0  12902-2 0  9997", "line2": "2 66456  43.0010  64.6743 0001155  67.7496 292.3483 15.40670264  5740"}}, "geometry": {"type": "Point", "coordinates": [58.53227466767044, -1.1982783701405744]}}, {"type": "Feature", "properties": {"norad_id": 66457, "name": "STARLINK-35466", "group": "last-30-days", "lat": 15.505816930470713, "lon": 77.08017800359006, "alt_km": 440.89344327213166, "timestamp": "2025-12-14T18:52:54.240783+00:00", "meta": {"OBJECT_NAME": "STARLINK-35466", "OBJECT_ID": "2025-262B", "EPOCH": "2025-12-13T22:33:20.355552", "MEAN_MOTION": 15.40671751, "ECCENTRICITY": 0.00024231, "INCLINATION": 42.9963, "RA_OF_ASC_NODE": 64.639, "ARG_OF_PERICENTER": 88.46, "MEAN_ANOMALY": 271.6534, "EPHEMERIS_TYPE": 0, "CLASSIFICATION_TYPE": "U", "NORAD_CAT_ID": 66457, "ELEMENT_SET_NO": 999, "REV_AT_EPOCH": 574, "BSTAR": 0.0011376506, "MEAN_MOTION_DOT": 0.00047472, "MEAN_MOTION_DDOT": 0}, "tle": {"line1": "1 66457U 25262B   25347.93981893  .00047472  00000+0  11377-2 0  9990", "line2": "2 66457  42.9963  64.6390 0002423  88.4600 271.6534 15.40671751  5749"}}, "geometry": {"type": "Point", "coordinates": [77.08017800359006, 15.505816930470713]}}, {"type": "Feature", "properties": {"norad_id": 66458, "name": "STARLINK-35684", "group": "last-30-days", "lat": 7.339310253250072, "lon": 67.73320407420265, "alt_km": 442.1753659332089, "timestamp": "2025-12-14T18:52:54.240794+00:00", "meta": {"OBJECT_NAME": "STARLINK-35684", "OBJECT_ID": "2025-262C", "EPOCH": "2025-12-13T22:36:33.100992", "MEAN_MOTION": 15.40690701, "ECCENTRICITY": 7.273e-05, "INCLINATION": 42.9971, "RA_OF_ASC_NODE": 64.6569, "ARG_OF_PERICENTER": 53.1172, "MEAN_ANOMALY": 306.9751, "EPHEMERIS_TYPE": 0, "CLASSIFICATION_TYPE": "U", "NORAD_CAT_ID": 66458, "ELEMENT_SET_NO": 999, "REV_AT_EPOCH": 574, "BSTAR": 0.0015993585, "MEAN_MOTION_DOT": 0.00067074, "MEAN_MOTION_DDOT": 0}, "tle": {"line1": "1 66458U 25262C   25347.94204978  .00067074  00000+0  15994-2 0  9993", "line2": "2 66458  42.9971  64.6569 0000727  53.1172 306.9751 15.40690701  5744"}}, "geometry": {"type": "Point", "coordinates": [67.73320407420265, 7.339310253250072]}}, {"type": "Feature", "properties": {"norad_id": 66459, "name": "STARLINK-35449", "group": "last-30-days", "lat": 23.416703188197513, "lon": 87.41961932194047, "alt_km": 440.2723558317648, "timestamp": "2025-12-14T18:52:54.240806+00:00", "meta": {"OBJECT_NAME": "STARLINK-35449", "OBJECT_ID": "2025-262D", "EPOCH": "2025-12-13T22:30:05.799168", "MEAN_MOTION": 15.40676985, "ECCENTRICITY": 6.006e-05, "INCLINATION": 43, "RA_OF_ASC_NODE": 64.62, "ARG_OF_PERICENTER": 272.096, "MEAN_ANOMALY": 87.9828, "EPHEMERIS_TYPE": 0, "CLASSIFICATION_TYPE": "U", "NORAD_CAT_ID": 66459, "ELEMENT_SET_NO": 999, "REV_AT_EPOCH": 574, "BSTAR": 0.0015166119, "MEAN_MOTION_DOT": 0.00063529, "MEAN_MOTION_DDOT": 0}, "tle": {"line1": "1 66459U 25262D   25347.93756712  .00063529  00000+0  15166-2 0  9993", "line2": "2 66459  43.0000  64.6200 0000600 272.0960  87.9828 15.40676985  5748"}}, "geometry": {"type": "Point", "coordinates": [87.41961932194047, 23.416703188197513]}}, {"type": "Feature", "properties": {"norad_id": 66460, "name": "STARLINK-35424", "group": "last-30-days", "lat": 30.533436013566543, "lon": 98.96481268459777, "alt_km": 437.5892058728423, "timestamp": "2025-12-14T18:52:54.240821+00:00", "meta": {"OBJECT_NAME": "STARLINK-35424", "OBJECT_ID": "2025-262E", "EPOCH": "2025-12-13T22:26:52.623456", "MEAN_MOTION": 15.40690821, "ECCENTRICITY": 0.00018557, "INCLINATION": 42.9999, "RA_OF_ASC_NODE": 64.6033, "ARG_OF_PERICENTER": 49.5436, "MEAN_ANOMALY": 310.5582, "EPHEMERIS_TYPE": 0, "CLASSIFICATION_TYPE": "U", "NORAD_CAT_ID": 66460, "ELEMENT_SET_NO": 999, "REV_AT_EPOCH": 574, "BSTAR": 0.0018205791, "MEAN_MOTION_DOT": 0.0007649, "MEAN_MOTION_DDOT": 0}, "tle": {"line1": "1 66460U 25262E   25347.93533129  .00076490  00000+0  18206-2 0  9999", "line2": "2 66460  42.9999  64.6033 0001855  49.5436 310.5582 15.40690821  5744"}}, "geometry": {"type": "Point", "coordinates": [98.96481268459777, 30.533436013566543]}}, {"type": "Feature", "properties": {"norad_id": 66461, "name": "STARLINK-35132", "group": "last-30-days", "lat": 36.60667433648964, "lon": 112.50175700922645, "alt_km": 439.83523564023653, "timestamp": "2025-12-14T18:52:54.240832+00:00", "meta": {"OBJECT_NAME": "STARLINK-35132", "OBJECT_ID": "2025-262F", "EPOCH": "2025-12-13T14:36:50.743296", "MEAN_MOTION": 15.4073966, "ECCENTRICITY": 0.0003855, "INCLINATION": 43.008, "RA_OF_ASC_NODE": 66.4512, "ARG_OF_PERICENTER": 270.6345, "MEAN_ANOMALY": 89.407, "EPHEMERIS_TYPE": 0, "CLASSIFICATION_TYPE": "U", "NORAD_CAT_ID": 66461, "ELEMENT_SET_NO": 999, "REV_AT_EPOCH": 569, "BSTAR": 0.0011620266, "MEAN_MOTION_DOT": 0.00048619, "MEAN_MOTION_DDOT": 0}, "tle": {"line1": "1 66461U 25262F   25347.60892064  .00048619  00000+0  11620-2 0  9995", "line2": "2 66461  43.0080  66.4512 0003855 270.6345  89.4070 15.40739660  5691"}}, "geometry": {"type": "Point", "coordinates": [112.50175700922645, 36.60667433648964]}}, {"type": "Feature", "properties": {"norad_id": 66462, "name": "STARLINK-35499", "group": "last-30-days", "lat": 40.81493659831026, "lon": 127.55388015219593, "alt_km": 438.5259616832709, "timestamp": "2025-12-14T18:52:54.240843+00:00", "meta": {"OBJECT_NAME": "STARLINK-35499", "OBJECT_ID": "2025-262G", "EPOCH": "2025-12-13T13:00:16.774848", "MEAN_MOTION": 15.40716698, "ECCENTRICITY": 0.00026717, "INCLINATION": 43.0034, "RA_OF_ASC_NODE": 66.8072, "ARG_OF_PERICENTER": 275.5949, "MEAN_ANOMALY": 84.4603, "EPHEMERIS_TYPE": 0, "CLASSIFICATION_TYPE": "U", "NORAD_CAT_ID": 66462, "ELEMENT_SET_NO": 999, "REV_AT_EPOCH": 568, "BSTAR": 0.0017330173, "MEAN_MOTION_DOT": 0.00072827, "MEAN_MOTION_DDOT": 0}, "tle": {"line1": "1 66462U 25262G   25347.54186082  .00072827  00000+0  17330-2 0  9997", "line2": "2 66462  43.0034  66.8072 0002671 275.5949  84.4603 15.40716698  5687"}}, "geometry": {"type": "Point", "coordinates": [127.55388015219593, 40.81493659831026]}}, {"type": "Feature", "properties": {"norad_id": 66463, "name": "STARLINK-35463", "group": "last-30-days", "lat": 42.494332807461156, "lon": 160.11570558634963, "alt_km": 438.4941931505282, "timestamp": "2025-12-14T18:52:54.240855+00:00", "meta": {"OBJECT_NAME": "STARLINK-35463", "OBJECT_ID": "2025-262H", "EPOCH": "2025-12-13T22:00:00.999936", "MEAN_MOTION": 15.40673053, "ECCENTRICITY": 0.00016576, "INCLINATION": 43.0009, "RA_OF_ASC_NODE": 64.5868, "ARG_OF_PERICENTER": 261.0704, "MEAN_ANOMALY": 45.2231, "EPHEMERIS_TYPE": 0, "CLASSIFICATION_TYPE": "U", "NORAD_CAT_ID": 66463, "ELEMENT_SET_NO": 999, "REV_AT_EPOCH": 582, "BSTAR": -4.5415386e-05, "MEAN_MOTION_DOT": -2.198e-05, "MEAN_MOTION_DDOT": 0}, "tle": {"line1": "1 66463U 25262H   25347.91667824 -.00002198  00000+0 -45415-4 0  9990", "line2": "2 66463  43.0009  64.5868 0001657 261.0704  45.2231 15.40673053  5825"}}, "geometry": {"type": "Point", "coordinates": [160.11570558634963, 42.494332807461156]}}]}